[{"OBJECT_NAME":"ONEWEB-0573","OBJECT_ID":"2023-004N","EPOCH":"2026-03-09T20:49:45.661440","MEAN_MOTION":13.18686944,"ECCENTRICITY":0.00025441,"INCLINATION":87.9239,"RA_OF_ASC_NODE":355.2031,"ARG_OF_PERICENTER":69.744,"MEAN_ANOMALY":290.3965,"EPHEMERIS_TYPE":0,"CLASSIFICATION_TYPE":"U","NORAD_CAT_ID":55152,"ELEMENT_SET_NO":999,"REV_AT_EPOCH":15660,"BSTAR":0.00013051857,"MEAN_MOTION_DOT":6.4e-7,"MEAN_MOTION_DDOT":0},{"OBJECT_NAME":"DELTA 1 DEB","OBJECT_ID":"1976-077DM","EPOCH":"2026-03-09T21:16:03.105120","MEAN_MOTION":12.78152564,"ECCENTRICITY":0.02429214,"INCLINATION":102.1351,"RA_OF_ASC_NODE":59.7465,"ARG_OF_PERICENTER":121.115,"MEAN_ANOMALY":304.0473,"EPHEMERIS_TYPE":0,"CLASSIFICATION_TYPE":"U","NORAD_CAT_ID":12532,"ELEMENT_SET_NO":999,"REV_AT_EPOCH":36812,"BSTAR":0.0060085813,"MEAN_MOTION_DOT":1.459e-5,"MEAN_MOTION_DDOT":0}]
